STARLINK-31849          
1 59734U 24090E   26068.32231498 -.00004557  00000+0 -15615-3 0  9990
2 59734  42.9996 178.6774 0000243 296.9087  63.1739 15.27592743103467
YAOGAN-43 01D           
1 60461U 24148D   26068.43560480  .00010676  00000+0  37766-3 0  9999
2 60461  35.0010  61.7102 0002556 326.2473  33.8080 15.28369377 87008
